[
    {
        "Altitude(m)": 612502.2518181591,
        "Argument of Periapsis(deg)": 0.0,
        "Eccentricity": 0.0,
        "Inclination(deg)": 60.0,
        "Latitude(deg)": -28.136158252390064,
        "Longitude(deg)": -72.85174224073376,
        "Mean Anomaly(deg)": -32.72730000000001,
        "RAAN(deg)": 45.0,
        "Satellite Name": "Test1 218",
        "Satellite Number": 218,
        "Semi-Major Axis(m)": 6980739.136638005,
        "Time(s)": 0
    },
    {
        "Altitude(m)": 612308.6989812716,
        "Argument of Periapsis(deg)": 0.00010418945913296404,
        "Eccentricity": 0.0,
        "Inclination(deg)": 60.0,
        "Latitude(deg)": -27.62321347304666,
        "Longitude(deg)": -72.49826767916677,
        "Mean Anomaly(deg)": -32.10719385453817,
        "RAAN(deg)": 44.99957995086026,
        "Satellite Name": "Test1 218",
        "Satellite Number": 218,
        "Semi-Major Axis(m)": 6980739.136638005,
        "Time(s)": 10
    },
    {
        "Altitude(m)": 612116.1150294753,
        "Argument of Periapsis(deg)": 0.0002083789182659281,
        "Eccentricity": 0.0,
        "Inclination(deg)": 60.0,
        "Latitude(deg)": -27.109099826143954,
        "Longitude(deg)": -72.148444305551,
        "Mean Anomaly(deg)": -31.48708770907633,
        "RAAN(deg)": 44.99915990172052,
        "Satellite Name": "Test1 218",
        "Satellite Number": 218,
        "Semi-Major Axis(m)": 6980739.136638005,
        "Time(s)": 20
    },
    {
        "Altitude(m)": 611924.5695496978,
        "Argument of Periapsis(deg)": 0.00031256837739889213,
        "Eccentricity": 0.0,
        "Inclination(deg)": 60.0,
        "Latitude(deg)": -26.593851627277612,
        "Longitude(deg)": -71.80216770268105,
        "Mean Anomaly(deg)": -30.86698156361449,
        "RAAN(deg)": 44.99873985258077,
        "Satellite Name": "Test1 218",
        "Satellite Number": 218,
        "Semi-Major Axis(m)": 6980739.136638005,
        "Time(s)": 30
    },
    {
        "Altitude(m)": 611734.131522252,
        "Argument of Periapsis(deg)": 0.0004167578365318562,
        "Eccentricity": 0.0,
        "Inclination(deg)": 60.0,
        "Latitude(deg)": -26.07750234269033,
        "Longitude(deg)": -71.4593351709727,
        "Mean Anomaly(deg)": -30.2468754181527,
        "RAAN(deg)": 44.99831980344103,
        "Satellite Name": "Test1 218",
        "Satellite Number": 218,
        "Semi-Major Axis(m)": 6980739.136638005,
        "Time(s)": 40
    },
    {
        "Altitude(m)": 611544.869290348,
        "Argument of Periapsis(deg)": 0.0005209472956648203,
        "Eccentricity": 0.0,
        "Inclination(deg)": 60.0,
        "Latitude(deg)": -25.56008462167453,
        "Longitude(deg)": -71.1198466732038,
        "Mean Anomaly(deg)": -29.626769272690854,
        "RAAN(deg)": 44.99789975430129,
        "Satellite Name": "Test1 218",
        "Satellite Number": 218,
        "Semi-Major Axis(m)": 6980739.136638005,
        "Time(s)": 50
    },
    {
        "Altitude(m)": 611356.850529851,
        "Argument of Periapsis(deg)": 0.0006251367547977843,
        "Eccentricity": 0.0,
        "Inclination(deg)": 60.0,
        "Latitude(deg)": -25.041630327871175,
        "Longitude(deg)": -70.7836042671338,
        "Mean Anomaly(deg)": -29.006663127229064,
        "RAAN(deg)": 44.997479705161545,
        "Satellite Name": "Test1 218",
        "Satellite Number": 218,
        "Semi-Major Axis(m)": 6980739.136638005,
        "Time(s)": 60
    },
    {
        "Altitude(m)": 611170.1422193547,
        "Argument of Periapsis(deg)": 0.0007293262139307483,
        "Eccentricity": 0.0,
        "Inclination(deg)": 60.0,
        "Latitude(deg)": -24.52217056950173,
        "Longitude(deg)": -70.45051153893638,
        "Mean Anomaly(deg)": -28.386556981767175,
        "RAAN(deg)": 44.9970596560218,
        "Satellite Name": "Test1 218",
        "Satellite Number": 218,
        "Semi-Major Axis(m)": 6980739.136638005,
        "Time(s)": 70
    },
    {
        "Altitude(m)": 610984.8106105762,
        "Argument of Periapsis(deg)": 0.0008335156730637124,
        "Eccentricity": 0.0,
        "Inclination(deg)": 60.0,
        "Latitude(deg)": -24.001735728573156,
        "Longitude(deg)": -70.12047455037057,
        "Mean Anomaly(deg)": -27.76645083630539,
        "RAAN(deg)": 44.996639606882056,
        "Satellite Name": "Test1 218",
        "Satellite Number": 218,
        "Semi-Major Axis(m)": 6980739.136638005,
        "Time(s)": 80
    },
    {
        "Altitude(m)": 610800.92119905,
        "Argument of Periapsis(deg)": 0.0009377051321966765,
        "Eccentricity": 0.0,
        "Inclination(deg)": 60.0,
        "Latitude(deg)": -23.480355489089323,
        "Longitude(deg)": -69.79340127398235,
        "Mean Anomaly(deg)": -27.146344690843545,
        "RAAN(deg)": 44.996219557742315,
        "Satellite Name": "Test1 218",
        "Satellite Number": 218,
        "Semi-Major Axis(m)": 6980739.136638005,
        "Time(s)": 90
    },
    {
        "Altitude(m)": 610618.5386952217,
        "Argument of Periapsis(deg)": 0.0010418945913296407,
        "Eccentricity": 0.0,
        "Inclination(deg)": 60.0,
        "Latitude(deg)": -22.958058864307638,
        "Longitude(deg)": -69.46920102924489,
        "Mean Anomaly(deg)": -26.526238545381705,
        "RAAN(deg)": 44.99579950860257,
        "Satellite Name": "Test1 218",
        "Satellite Number": 218,
        "Semi-Major Axis(m)": 6980739.136638005,
        "Time(s)": 100
    },
    {
        "Altitude(m)": 610437.7269958467,
        "Argument of Periapsis(deg)": 0.0011460840504626045,
        "Eccentricity": 0.0,
        "Inclination(deg)": 60.0,
        "Latitude(deg)": -22.434874223075234,
        "Longitude(deg)": -69.14778543253775,
        "Mean Anomaly(deg)": -25.906132399919866,
        "RAAN(deg)": 44.99537945946283,
        "Satellite Name": "Test1 218",
        "Satellite Number": 218,
        "Semi-Major Axis(m)": 6980739.136638005,
        "Time(s)": 110
    },
    {
        "Altitude(m)": 610258.549155796,
        "Argument of Periapsis(deg)": 0.0012502735095955685,
        "Eccentricity": 0.0,
        "Inclination(deg)": 60.0,
        "Latitude(deg)": -21.910829315278622,
        "Longitude(deg)": -68.8290678352351,
        "Mean Anomaly(deg)": -25.286026254458022,
        "RAAN(deg)": 44.99495941032309,
        "Satellite Name": "Test1 218",
        "Satellite Number": 218,
        "Semi-Major Axis(m)": 6980739.136638005,
        "Time(s)": 120
    },
    {
        "Altitude(m)": 610081.0673602447,
        "Argument of Periapsis(deg)": 0.0013544629687285324,
        "Eccentricity": 0.0,
        "Inclination(deg)": 60.0,
        "Latitude(deg)": -21.385951296440865,
        "Longitude(deg)": -68.51296276279152,
        "Mean Anomaly(deg)": -24.665920108996232,
        "RAAN(deg)": 44.99453936118335,
        "Satellite Name": "Test1 218",
        "Satellite Number": 218,
        "Semi-Major Axis(m)": 6980739.136638005,
        "Time(s)": 130
    },
    {
        "Altitude(m)": 609905.3428972507,
        "Argument of Periapsis(deg)": 0.0014586524278614966,
        "Eccentricity": 0.0,
        "Inclination(deg)": 60.0,
        "Latitude(deg)": -20.860266751499815,
        "Longitude(deg)": -68.1993868677067,
        "Mean Anomaly(deg)": -24.045813963534393,
        "RAAN(deg)": 44.99411931204361,
        "Satellite Name": "Test1 218",
        "Satellite Number": 218,
        "Semi-Major Axis(m)": 6980739.136638005,
        "Time(s)": 140
    },
    {
        "Altitude(m)": 609731.436130786,
        "Argument of Periapsis(deg)": 0.0015628418869944607,
        "Eccentricity": 0.0,
        "Inclination(deg)": 60.0,
        "Latitude(deg)": -20.333801717798355,
        "Longitude(deg)": -67.8882583706254,
        "Mean Anomaly(deg)": -23.4257078180726,
        "RAAN(deg)": 44.99369926290386,
        "Satellite Name": "Test1 218",
        "Satellite Number": 218,
        "Semi-Major Axis(m)": 6980739.136638005,
        "Time(s)": 150
    },
    {
        "Altitude(m)": 609559.4064741395,
        "Argument of Periapsis(deg)": 0.0016670313461274247,
        "Eccentricity": 0.0,
        "Inclination(deg)": 60.0,
        "Latitude(deg)": -19.806581707317658,
        "Longitude(deg)": -67.57949650244362,
        "Mean Anomaly(deg)": -22.80560167261071,
        "RAAN(deg)": 44.99327921376411,
        "Satellite Name": "Test1 218",
        "Satellite Number": 218,
        "Semi-Major Axis(m)": 6980739.136638005,
        "Time(s)": 160
    },
    {
        "Altitude(m)": 609389.3123638363,
        "Argument of Periapsis(deg)": 0.0017712208052603888,
        "Eccentricity": 0.0,
        "Inclination(deg)": 60.0,
        "Latitude(deg)": -19.278631728185772,
        "Longitude(deg)": -67.27302246029335,
        "Mean Anomaly(deg)": -22.18549552714892,
        "RAAN(deg)": 44.99285916462437,
        "Satellite Name": "Test1 218",
        "Satellite Number": 218,
        "Semi-Major Axis(m)": 6980739.136638005,
        "Time(s)": 170
    },
    {
        "Altitude(m)": 609221.2112339591,
        "Argument of Periapsis(deg)": 0.001875410264393353,
        "Eccentricity": 0.0,
        "Inclination(deg)": 60.0,
        "Latitude(deg)": -18.749976305487884,
        "Longitude(deg)": -66.96875885164695,
        "Mean Anomaly(deg)": -21.56538938168708,
        "RAAN(deg)": 44.99243911548463,
        "Satellite Name": "Test1 218",
        "Satellite Number": 218,
        "Semi-Major Axis(m)": 6980739.136638005,
        "Time(s)": 180
    },
    {
        "Altitude(m)": 609055.159490965,
        "Argument of Periapsis(deg)": 0.0019795997235263173,
        "Eccentricity": 0.0,
        "Inclination(deg)": 60.0,
        "Latitude(deg)": -18.220639501409458,
        "Longitude(deg)": -66.66662913940527,
        "Mean Anomaly(deg)": -20.94528323622524,
        "RAAN(deg)": 44.99201906634489,
        "Satellite Name": "Test1 218",
        "Satellite Number": 218,
        "Semi-Major Axis(m)": 6980739.136638005,
        "Time(s)": 190
    }
]